0 METEOR 1-10 DEB
1 08827U 71120D   13287.11345972  .00000147  00000-0  68960-4 0  8937
2 08827 081.2678 183.5515 0013840 144.5037 335.3929 14.15177183153345
0 METEOR 1-10 DEB
1 08827U 71120D   13289.17035881  .00000220  00000-0  10640-3 0  8944
2 08827 081.2673 181.5384 0013938 139.0727 014.1092 14.15177812153639
0 METEOR 1-10 DEB
1 08827U 71120D   13291.42693527  .00000291  00000-0  14293-3 0  8959
2 08827 081.2669 179.3297 0014092 132.8123 350.3746 14.15178054153950
0 METEOR 1-10 DEB
1 08827U 71120D   13293.74733597  .00000304  00000-0  14980-3 0  8967
2 08827 081.2667 177.0582 0014220 126.5037 291.6692 14.15179194154287
0 METEOR 1-10 DEB
1 08827U 71120D   13296.10137385  .00000236  00000-0  11502-3 0  8975
2 08827 081.2666 174.7537 0014249 120.1862 044.2538 14.15181301154618
